[{"OBJECT_NAME":"STARLINK-36609","OBJECT_ID":"2026-016X","EPOCH":"2026-03-09T16:57:28.485216","MEAN_MOTION":15.75184312,"ECCENTRICITY":8.036e-5,"INCLINATION":97.2846,"RA_OF_ASC_NODE":129.1579,"ARG_OF_PERICENTER":82.37,"MEAN_ANOMALY":277.7657,"EPHEMERIS_TYPE":0,"CLASSIFICATION_TYPE":"U","NORAD_CAT_ID":67582,"ELEMENT_SET_NO":999,"REV_AT_EPOCH":680,"BSTAR":0.0020952114,"MEAN_MOTION_DOT":0.0032449,"MEAN_MOTION_DDOT":0},{"OBJECT_NAME":"ATLAS CENTAUR R\/B","OBJECT_ID":"1981-050B","EPOCH":"2026-03-09T21:41:53.909088","MEAN_MOTION":8.78968384,"ECCENTRICITY":0.32572443,"INCLINATION":23.9372,"RA_OF_ASC_NODE":11.6522,"ARG_OF_PERICENTER":123.7324,"MEAN_ANOMALY":271.6876,"EPHEMERIS_TYPE":0,"CLASSIFICATION_TYPE":"U","NORAD_CAT_ID":12497,"ELEMENT_SET_NO":999,"REV_AT_EPOCH":16823,"BSTAR":0.0011109574,"MEAN_MOTION_DOT":0.00013474,"MEAN_MOTION_DDOT":0}]
